
# Worst residual: 7.03 km
# MJD 58588.000000 (2019 Apr 15  0:00)
2011-037A = Spektr-R = NORAD 37755
1 37755U 11037A   19105.49919926  .00000000  00000-0  00000-0 2  3541
2 37755 062.0504 108.6557 6479529 198.6119 043.6280 00.11877181    02

# Worst residual: 13.59 km
# MJD 58589.000000 (2019 Apr 16  0:00)
2011-037A = Spektr-R = NORAD 37755
1 37755U 11037A   19106.49919926  .00000000  00000-0  00000-0 2  3542
2 37755 062.0601 108.6498 6471647 198.5470 086.6833 00.11906140    05

# Worst residual: 14.10 km
# MJD 58590.000000 (2019 Apr 17  0:00)
2011-037A = Spektr-R = NORAD 37755
1 37755U 11037A   19107.49919926  .00000000  00000-0  00000-0 2  3543
2 37755 062.0770 108.6489 6466140 198.4255 130.0081 00.11929185    07

# Worst residual: 11.75 km
# MJD 58591.000000 (2019 Apr 18  0:00)
2011-037A = Spektr-R = NORAD 37755
1 37755U 11037A   19108.49919926  .00000000  00000-0  00000-0 2  3544
2 37755 062.1396 108.6617 6467451 198.2811 173.4457 00.11942332    04

# Worst residual: 12.12 km
# MJD 58592.000000 (2019 Apr 19  0:00)
2011-037A = Spektr-R = NORAD 37755
1 37755U 11037A   19109.49919926  .00000000  00000-0  00000-0 2  3545
2 37755 062.2327 108.7042 6473533 198.1574 216.8312 00.11945212    07

# Worst residual: 10.24 km
# MJD 58593.000000 (2019 Apr 20  0:00)
2011-037A = Spektr-R = NORAD 37755
1 37755U 11037A   19110.49919926  .00000000  00000-0  00000-0 2  3547
2 37755 062.3139 108.7674 6481557 198.0758 260.0853 00.11941673    06

# Worst residual: 6.33 km
# MJD 58594.000000 (2019 Apr 21  0:00)
2011-037A = Spektr-R = NORAD 37755
1 37755U 11037A   19111.49919926  .00000000  00000-0  00000-0 2  3548
2 37755 062.3526 108.8201 6489277 198.0475 303.2005 00.11935230    07

# Worst residual: 5.05 km
# MJD 58595.000000 (2019 Apr 22  0:00)
2011-037A = Spektr-R = NORAD 37755
1 37755U 11037A   19112.49919926  .00000000  00000-0  00000-0 2  3549
2 37755 062.3564 108.8244 6494645 198.0455 346.2078 00.11920195    00

# Worst residual: 5.80 km
# MJD 58596.000000 (2019 Apr 23  0:00)
2011-037A = Spektr-R = NORAD 37755
1 37755U 11037A   19113.49919926  .00000000  00000-0  00000-0 2  3540
2 37755 062.3646 108.8189 6494121 198.0507 029.1219 00.11920250    02

# Worst residual: 6.24 km
# MJD 58597.000000 (2019 Apr 24  0:00)
2011-037A = Spektr-R = NORAD 37755
1 37755U 11037A   19114.49919926  .00000000  00000-0  00000-0 2  3541
2 37755 062.4061 108.7870 6491579 198.1526 071.9355 00.11902959    08

# Worst residual: 5.03 km
# MJD 58598.000000 (2019 Apr 25  0:00)
2011-037A = Spektr-R = NORAD 37755
1 37755U 11037A   19115.49919926  .00000000  00000-0  00000-0 2  3542
2 37755 062.4750 108.7725 6487513 198.2373 114.6337 00.11886956    09

# Worst residual: 3.82 km
# MJD 58599.000000 (2019 Apr 26  0:00)
2011-037A = Spektr-R = NORAD 37755
1 37755U 11037A   19116.49919926  .00000000  00000-0  00000-0 2  3543
2 37755 062.5268 108.7767 6483900 198.2881 157.2744 00.11877723    07

# Worst residual: 2.74 km
# MJD 58600.000000 (2019 Apr 27  0:00)
2011-037A = Spektr-R = NORAD 37755
1 37755U 11037A   19117.49919926  .00000000  00000-0  00000-0 2  3544
2 37755 062.5413 108.7810 6481773 198.3215 199.9047 00.11875034    08

# Worst residual: 3.95 km
# MJD 58601.000000 (2019 Apr 28  0:00)
2011-037A = Spektr-R = NORAD 37755
1 37755U 11037A   19118.49919926  .00000000  00000-0  00000-0 2  3545
2 37755 062.5193 108.7661 6481315 198.3573 242.5601 00.11877702    01

# Worst residual: 5.11 km
# MJD 58602.000000 (2019 Apr 29  0:00)
2011-037A = Spektr-R = NORAD 37755
1 37755U 11037A   19119.49919926  .00000000  00000-0  00000-0 2  3546
2 37755 062.4803 108.7226 6482113 198.4087 285.2647 00.11884074    07

# Worst residual: 5.02 km
# MJD 58603.000000 (2019 Apr 30  0:00)
2011-037A = Spektr-R = NORAD 37755
1 37755U 11037A   19120.49919926  .00000000  00000-0  00000-0 2  3548
2 37755 062.4583 108.6662 6483309 198.4727 328.0290 00.11891741    03

# Worst residual: 3.33 km
# MJD 58604.000000 (2019 May  1  0:00)
2011-037A = Spektr-R = NORAD 37755
1 37755U 11037A   19121.49919926  .00000000  00000-0  00000-0 2  3549
2 37755 062.4604 108.6499 6483732 198.5004 010.8396 00.11893522    06

# Worst residual: 5.66 km
# MJD 58605.000000 (2019 May  2  0:00)
2011-037A = Spektr-R = NORAD 37755
1 37755U 11037A   19122.49919926  .00000000  00000-0  00000-0 2  3540
2 37755 062.4718 108.6291 6479419 198.4894 053.7571 00.11912368    06

# Worst residual: 8.87 km
# MJD 58606.000000 (2019 May  3  0:00)
2011-037A = Spektr-R = NORAD 37755
1 37755U 11037A   19123.49919926  .00000000  00000-0  00000-0 2  3541
2 37755 062.4909 108.6215 6473918 198.4457 096.8600 00.11929892    08

# Worst residual: 10.52 km
# MJD 58607.000000 (2019 May  4  0:00)
2011-037A = Spektr-R = NORAD 37755
1 37755U 11037A   19124.49919926  .00000000  00000-0  00000-0 2  3542
2 37755 062.5192 108.6214 6470369 198.3588 140.1389 00.11943315    06

# Worst residual: 12.18 km
# MJD 58608.000000 (2019 May  5  0:00)
2011-037A = Spektr-R = NORAD 37755
1 37755U 11037A   19125.49919926  .00000000  00000-0  00000-0 2  3543
2 37755 062.5798 108.6372 6471082 198.2328 183.5641 00.11950677    08

# Worst residual: 17.34 km
# MJD 58609.000000 (2019 May  6  0:00)
2011-037A = Spektr-R = NORAD 37755
1 37755U 11037A   19126.49919926  .00000000  00000-0  00000-0 2  3544
2 37755 062.6877 108.6941 6478628 198.0875 227.0449 00.11950362    08

# Worst residual: 17.15 km
# MJD 58610.000000 (2019 May  7  0:00)
2011-037A = Spektr-R = NORAD 37755
1 37755U 11037A   19127.49919926  .00000000  00000-0  00000-0 2  3545
2 37755 062.8092 108.8014 6494165 197.9916 270.4110 00.11946710    09

# Worst residual: 7.85 km
# MJD 58611.000000 (2019 May  8  0:00)
2011-037A = Spektr-R = NORAD 37755
1 37755U 11037A   19128.49919926  .00000000  00000-0  00000-0 2  3546
2 37755 062.8597 108.8814 6508941 198.0095 313.5628 00.11944107    06

# Worst residual: 4.45 km
# MJD 58612.000000 (2019 May  9  0:00)
2011-037A = Spektr-R = NORAD 37755
1 37755U 11037A   19129.49919926  .00000000  00000-0  00000-0 2  3547
2 37755 062.8632 108.8823 6515542 197.9953 356.5883 00.11918922    08

# Worst residual: 8.71 km
# MJD 58613.000000 (2019 May 10  0:00)
2011-037A = Spektr-R = NORAD 37755
1 37755U 11037A   19130.49919926  .00000000  00000-0  00000-0 2  3549
2 37755 062.8675 108.8790 6511263 197.9762 039.5722 00.11939018    01
